{
    "links": {
        "self": "http://www.neowsapp.com/rest/v1/neo/3445078?api_key=iIulBulltgU6a56xZRHN4H3l9WmuAYTsLGpBGhQ2"
    },
    "id": "3445078",
    "neo_reference_id": "3445078",
    "name": "(2009 BN58)",
    "designation": "2009 BN58",
    "nasa_jpl_url": "http://ssd.jpl.nasa.gov/sbdb.cgi?sstr=3445078",
    "absolute_magnitude_h": 25.8,
    "estimated_diameter": {
        "kilometers": {
            "estimated_diameter_min": 0.0183888672,
            "estimated_diameter_max": 0.0411187571
        },
        "meters": {
            "estimated_diameter_min": 18.388867207,
            "estimated_diameter_max": 41.1187571041
        },
        "miles": {
            "estimated_diameter_min": 0.0114263088,
            "estimated_diameter_max": 0.0255500032
        },
        "feet": {
            "estimated_diameter_min": 60.3309310875,
            "estimated_diameter_max": 134.9040630575
        }
    },
    "is_potentially_hazardous_asteroid": false,
    "close_approach_data": [
        {
            "close_approach_date": "2009-02-06",
            "close_approach_date_full": "2009-Feb-06 03:39",
            "epoch_date_close_approach": 1233891540000,
            "relative_velocity": {
                "kilometers_per_second": "4.8970696963",
                "kilometers_per_hour": "17629.4509066119",
                "miles_per_hour": "10954.2552036111"
            },
            "miss_distance": {
                "astronomical": "0.0530118448",
                "lunar": "20.6216076272",
                "kilometers": "7930459.066850576",
                "miles": "4927758.7609309088"
            },
            "orbiting_body": "Earth"
        }
    ],
    "orbital_data": {
        "orbit_id": "7",
        "orbit_determination_date": "2017-04-06 09:01:31",
        "first_observation_date": "2009-01-29",
        "last_observation_date": "2009-02-05",
        "data_arc_in_days": 7,
        "observations_used": 17,
        "orbit_uncertainty": "8",
        "minimum_orbit_intersection": ".0467353",
        "jupiter_tisserand_invariant": "4.792",
        "epoch_osculation": "2454862.5",
        "eccentricity": ".2471302544234157",
        "semi_major_axis": "1.367367972218922",
        "inclination": "6.707120048557444",
        "ascending_node_longitude": "313.6016704507831",
        "orbital_period": "584.0184021046921",
        "perihelion_distance": "1.02944997735403",
        "perihelion_argument": "194.2941879320304",
        "aphelion_distance": "1.705285967083815",
        "perihelion_time": "2454877.326958491107",
        "mean_anomaly": "350.8603820743277",
        "mean_motion": ".616418932524434",
        "equinox": "J2000",
        "orbit_class": {
            "orbit_class_type": "AMO",
            "orbit_class_description": "Near-Earth asteroid orbits similar to that of 1221 Amor",
            "orbit_class_range": "1.017 AU < q (perihelion) < 1.3 AU"
        }
    },
    "is_sentry_object": false
}